[{"OBJECT_NAME":"LAPAN-A3","OBJECT_ID":"2016-040E","EPOCH":"2026-03-09T23:01:57.724896","MEAN_MOTION":15.3238951,"ECCENTRICITY":0.00109839,"INCLINATION":97.1488,"RA_OF_ASC_NODE":68.4254,"ARG_OF_PERICENTER":22.062,"MEAN_ANOMALY":338.1093,"EPHEMERIS_TYPE":0,"CLASSIFICATION_TYPE":"U","NORAD_CAT_ID":41603,"ELEMENT_SET_NO":999,"REV_AT_EPOCH":53961,"BSTAR":0.00017567445,"MEAN_MOTION_DOT":5.428e-5,"MEAN_MOTION_DDOT":0},{"OBJECT_NAME":"STARLINK-35020","OBJECT_ID":"2025-189T","EPOCH":"2026-03-09T21:45:26.269920","MEAN_MOTION":15.30208225,"ECCENTRICITY":0.00016568,"INCLINATION":53.1599,"RA_OF_ASC_NODE":205.4732,"ARG_OF_PERICENTER":51.9803,"MEAN_ANOMALY":308.1347,"EPHEMERIS_TYPE":0,"CLASSIFICATION_TYPE":"U","NORAD_CAT_ID":65340,"ELEMENT_SET_NO":999,"REV_AT_EPOCH":3109,"BSTAR":0.0013477456,"MEAN_MOTION_DOT":0.00039782,"MEAN_MOTION_DDOT":0}]
